GPS BIIR-2  (PRN 13)    
1 24876U 97035A   24150.33183007  .00000082  00000+0  00000+0 0  9996
2 24876  55.6654 127.8687 0078972  51.9310 308.7624  2.00565427196738
GPS BIIR-4  (PRN 20)    
1 26360U 00025A   24150.30563001 -.00000061  00000+0  00000+0 0  9990
2 26360  54.6522  49.6510 0037132 214.5164 212.0176  2.00549161176244
GPS BIIR-5  (PRN 22)    
1 26407U 00040A   24149.44368001  .00000004  00000+0  00000+0 0  9991
2 26407  55.0744 244.9707 0145021 294.5365  72.4615  2.00559968174917
GPS BIIR-8  (PRN 16)    
1 27663U 03005A   24150.38386847 -.00000005  00000+0  00000+0 0  9995
2 27663  55.1130 244.7445 0137424  47.4856  53.3046  2.00550550156281
GPS BIIR-9  (PRN 21)    
1 27704U 03010A   24149.69812567 -.00000069  00000+0  00000+0 0  9992
2 27704  55.1008 354.5766 0253344 327.0393 217.9704  2.00562140155073
GPS BIIR-11 (PRN 19)    
1 28190U 04009A   24150.01993882 -.00000036  00000+0  00000+0 0  9993
2 28190  55.4714 305.8039 0097375 147.1387 211.1959  2.00559655147959
GPS BIIR-13 (PRN 02)    
1 28474U 04045A   24150.23818795 -.00000069  00000+0  00000+0 0  9997
2 28474  55.4293 354.9673 0161943 292.0224 269.2173  2.00560820143402
GPS BIIRM-1 (PRN 17)    
1 28874U 05038A   24149.48660566 -.00000033  00000+0  00000+0 0  9991
2 28874  55.5185 303.2857 0135993 284.0836  73.4450  2.00556679136798
GPS BIIRM-2 (PRN 31)    
1 29486U 06042A   24150.28919729  .00000077  00000+0  00000+0 0  9992
2 29486  54.6773 181.0352 0103222  37.7991  79.6698  2.00556838129520
GPS BIIRM-3 (PRN 12)    
1 29601U 06052A   24149.05757519  .00000008  00000+0  00000+0 0  9996
2 29601  55.1429 243.7737 0085611  82.8456 278.1753  2.00566554128369
GPS BIIRM-4 (PRN 15)    
1 32260U 07047A   24150.35627804  .00000052  00000+0  00000+0 0  9993
2 32260  53.5982 111.0293 0154318  74.9466 286.7298  2.00565007121812
GPS BIIRM-5 (PRN 29)    
1 32384U 07062A   24149.67485694 -.00000034  00000+0  00000+0 0  9990
2 32384  55.6564 304.1380 0028110 149.9513 205.7863  2.00573618120473
GPS BIIRM-6 (PRN 07)    
1 32711U 08012A   24149.27885546  .00000075  00000+0  00000+0 0  9990
2 32711  54.4497 179.8433 0187323 238.8307 119.3790  2.00567520118714
GPS BIIRM-8 (PRN 05)    
1 35752U 09043A   24148.77186045 -.00000044  00000+0  00000+0 0  9992
2 35752  55.6571  57.0950 0056503  71.1925 298.7059  2.00570255108312
GPS BIIF-1  (PRN 25)    
1 36585U 10022A   24148.67053498  .00000016  00000+0  00000+0 0  9998
2 36585  54.4520 238.8287 0114412  61.9169 357.5156  2.00550115102545
GPS BIIF-3  (PRN 24)    
1 38833U 12053A   24149.95402025  .00000080  00000+0  00000+0 0  9999
2 38833  53.5156 174.2548 0150996  55.5872 305.8839  2.00558271 85307
GPS BIIF-4  (PRN 27)    
1 39166U 13023A   24149.81718802 -.00000033  00000+0  00000+0 0  9994
2 39166  55.1307 299.3614 0124021  44.7080 316.2743  2.00562812 80847
GPS BIIF-5  (PRN 30)    
1 39533U 14008A   24149.32021119  .00000074  00000+0  00000+0 0  9994
2 39533  53.5984 179.8756 0072903 220.1906 139.3282  2.00567212 74647
GPS BIIF-6  (PRN 06)    
1 39741U 14026A   24149.09845023 -.00000068  00000+0  00000+0 0  9991
2 39741  56.7103   0.6453 0031392 317.1512  42.6478  2.00569749 73490
GPS BIIF-7  (PRN 09)    
1 40105U 14045A   24149.19161693  .00000062  00000+0  00000+0 0  9996
2 40105  54.9232 118.4071 0025019 115.6796 244.5538  2.00564821 71031
GPS BIIF-8  (PRN 03)    
1 40294U 14068A   24150.06044698 -.00000043  00000+0  00000+0 0  9993
2 40294  56.4054  59.9866 0053227  61.3629 299.1919  2.00558428 70162
GPS BIIF-9  (PRN 26)    
1 40534U 15013A   24148.69695374  .00000017  00000+0  00000+0 0  9990
2 40534  53.3501 235.2475 0087518  29.7707 330.7866  2.00566619 66778
GPS BIIF-10 (PRN 08)    
1 40730U 15033A   24149.35731846 -.00000031  00000+0  00000+0 0  9996
2 40730  54.6148 297.8630 0093963  19.5565 340.7895  2.00567906 64955
GPS BIIF-11 (PRN 10)    
1 41019U 15062A   24149.91411719 -.00000042  00000+0  00000+0 0  9997
2 41019  56.3858  59.8452 0094897 225.2071 134.0393  2.00562322 62802
GPS BIIF-12 (PRN 32)    
1 41328U 16007A   24148.49899486  .00000060  00000+0  00000+0 0  9992
2 41328  55.1187 119.2725 0079776 238.8033 120.3868  2.00562860 60785
GPS BIII-1  (PRN 04)    
1 43873U 18109A   24150.39827492  .00000073  00000+0  00000+0 0  9998
2 43873  55.2907 121.7705 0028976 195.8082 347.5602  2.00554999 40007
GPS BIII-2  (PRN 18)    
1 44506U 19056A   24149.53938304 -.00000071  00000+0  00000+0 0  9992
2 44506  55.8408   0.8610 0041594 188.0199 355.8163  2.00571403 35039
GPS BIII-3  (PRN 23)    
1 45854U 20041A   24149.12966102 -.00000042  00000+0  00000+0 0  9995
2 45854  56.1063  58.2155 0042196 193.1379 351.0191  2.00558855 28996
GPS BIII-4  (PRN 14)    
1 46826U 20078A   24150.33603565 -.00000002  00000+0  00000+0 0  9997
2 46826  54.1875 241.1750 0045663 196.2929 117.1485  2.00560082 26480
GPS BIII-5  (PRN 11)    
1 48859U 21054A   24149.90000455 -.00000073  00000+0  00000+0 0  9998
2 48859  55.3653   2.5067 0014387 219.4355 324.2062  2.00559060 21712
GPS BIII-6  (PRN 28)    
1 55268U 23009A   24148.09599726  .00000079  00000+0  00000+0 0  9990
2 55268  55.0855 177.9941 0001127 112.3701 250.5290  2.00565556 10187
